{
  "type": "FeatureCollection",
  "features": [
    {
      "type": "Feature",
      "properties": {
        "norad_id": 38495,
        "name": "FENGYUN 1C DEB",
        "group": "fengyun-1c-debris",
        "lat": -17.628781987000057,
        "lon": 170.61651869530837,
        "alt_km": 849.9970910523016,
        "timestamp": "2025-12-02T17:49:12.317710+00:00",
        "meta_object_name": "FENGYUN 1C DEB",
        "meta_object_id": "1999-025ESE",
        "meta_epoch": "2025-12-02T06:20:41.771904",
        "meta_mean_motion": 13.69106573,
        "meta_eccentricity": 0.0252581,
        "meta_inclination": 99.1709,
        "meta_ra_of_asc_node": 353.1036,
        "meta_arg_of_pericenter": 165.9119,
        "meta_mean_anomaly": 194.9245,
        "meta_ephemeris_type": 0,
        "meta_classification_type": "U",
        "meta_norad_cat_id": 38495,
        "meta_element_set_no": 999,
        "meta_rev_at_epoch": 60969,
        "meta_bstar": 0.0025866,
        "meta_mean_motion_dot": 2.759e-05,
        "meta_mean_motion_ddot": 0,
        "tle_line1": "1 38495U 99025ESE 25336.26437236  .00002759  00000+0  25866-2 0  9997",
        "tle_line2": "2 38495  99.1709 353.1036 0252581 165.9119 194.9245 13.69106573609697"
      },
      "geometry": {
        "type": "Point",
        "coordinates": [
          170.61651869530837,
          -17.628781987000057
        ]
      }
    },
    {
      "type": "Feature",
      "properties": {
        "norad_id": 38496,
        "name": "FENGYUN 1C DEB",
        "group": "fengyun-1c-debris",
        "lat": -67.28608892084907,
        "lon": 8.34883980498591,
        "alt_km": 880.0309172406523,
        "timestamp": "2025-12-02T17:49:12.317721+00:00",
        "meta_object_name": "FENGYUN 1C DEB",
        "meta_object_id": "1999-025ESF",
        "meta_epoch": "2025-11-21T06:14:04.243776",
        "meta_mean_motion": 14.09910223,
        "meta_eccentricity": 0.00783122,
        "meta_inclination": 98.762,
        "meta_ra_of_asc_node": 335.5484,
        "meta_arg_of_pericenter": 67.5314,
        "meta_mean_anomaly": 293.4126,
        "meta_ephemeris_type": 0,
        "meta_classification_type": "U",
        "meta_norad_cat_id": 38496,
        "meta_element_set_no": 999,
        "meta_rev_at_epoch": 80718,
        "meta_bstar": 0.00099539788,
        "meta_mean_motion_dot": 1.761e-05,
        "meta_mean_motion_ddot": 0,
        "tle_line1": "1 38496U 99025ESF 25325.25977134  .00001761  00000+0  99540-3 0  9994",
        "tle_line2": "2 38496  98.7620 335.5484 0078312  67.5314 293.4126 14.09910223807185"
      },
      "geometry": {
        "type": "Point",
        "coordinates": [
          8.34883980498591,
          -67.28608892084907
        ]
      }
    },
    {
      "type": "Feature",
      "properties": {
        "norad_id": 38498,
        "name": "FENGYUN 1C DEB",
        "group": "fengyun-1c-debris",
        "lat": -48.904357714700815,
        "lon": 166.78672246260493,
        "alt_km": 1570.5304880642088,
        "timestamp": "2025-12-02T17:49:12.317731+00:00",
        "meta_object_name": "FENGYUN 1C DEB",
        "meta_object_id": "1999-025ESH",
        "meta_epoch": "2025-12-02T07:26:08.626848",
        "meta_mean_motion": 12.96587855,
        "meta_eccentricity": 0.0556787,
        "meta_inclination": 99.6992,
        "meta_ra_of_asc_node": 357.7083,
        "meta_arg_of_pericenter": 95.9018,
        "meta_mean_anomaly": 270.5803,
        "meta_ephemeris_type": 0,
        "meta_classification_type": "U",
        "meta_norad_cat_id": 38498,
        "meta_element_set_no": 999,
        "meta_rev_at_epoch": 53608,
        "meta_bstar": 0.0021056,
        "meta_mean_motion_dot": 1.199e-05,
        "meta_mean_motion_ddot": 0,
        "tle_line1": "1 38498U 99025ESH 25336.30982207  .00001199  00000+0  21056-2 0  9992",
        "tle_line2": "2 38498  99.6992 357.7083 0556787  95.9018 270.5803 12.96587855536084"
      },
      "geometry": {
        "type": "Point",
        "coordinates": [
          166.78672246260493,
          -48.904357714700815
        ]
      }
    },
    {
      "type": "Feature",
      "properties": {
        "norad_id": 38510,
        "name": "FENGYUN 1C DEB",
        "group": "fengyun-1c-debris",
        "lat": 41.747275356467526,
        "lon": 173.96986228099945,
        "alt_km": 790.7993673718729,
        "timestamp": "2025-12-02T17:49:12.317742+00:00",
        "meta_object_name": "FENGYUN 1C DEB",
        "meta_object_id": "1999-025ESV",
        "meta_epoch": "2025-11-26T06:32:42.236448",
        "meta_mean_motion": 14.13269737,
        "meta_eccentricity": 0.00981735,
        "meta_inclination": 98.6025,
        "meta_ra_of_asc_node": 339.985,
        "meta_arg_of_pericenter": 196.9618,
        "meta_mean_anomaly": 162.8266,
        "meta_ephemeris_type": 0,
        "meta_classification_type": "U",
        "meta_norad_cat_id": 38510,
        "meta_element_set_no": 999,
        "meta_rev_at_epoch": 88437,
        "meta_bstar": 0.0006714866,
        "meta_mean_motion_dot": 1.276e-05,
        "meta_mean_motion_ddot": 0,
        "tle_line1": "1 38510U 99025ESV 25330.27271107  .00001276  00000+0  67149-3 0  9997",
        "tle_line2": "2 38510  98.6025 339.9850 0098173 196.9618 162.8266 14.13269737884378"
      },
      "geometry": {
        "type": "Point",
        "coordinates": [
          173.96986228099945,
          41.747275356467526
        ]
      }
    },
    {
      "type": "Feature",
      "properties": {
        "norad_id": 38512,
        "name": "FENGYUN 1C DEB",
        "group": "fengyun-1c-debris",
        "lat": 24.479517949682283,
        "lon": 43.619792125508226,
        "alt_km": 830.813961452498,
        "timestamp": "2025-12-02T17:49:12.317752+00:00",
        "meta_object_name": "FENGYUN 1C DEB",
        "meta_object_id": "1999-025ESX",
        "meta_epoch": "2025-11-24T15:04:33.900960",
        "meta_mean_motion": 13.73922037,
        "meta_eccentricity": 0.02258852,
        "meta_inclination": 98.3776,
        "meta_ra_of_asc_node": 212.6517,
        "meta_arg_of_pericenter": 154.1881,
        "meta_mean_anomaly": 207.075,
        "meta_ephemeris_type": 0,
        "meta_classification_type": "U",
        "meta_norad_cat_id": 38512,
        "meta_element_set_no": 999,
        "meta_rev_at_epoch": 59321,
        "meta_bstar": 0.0011065478,
        "meta_mean_motion_dot": 1.212e-05,
        "meta_mean_motion_ddot": 0,
        "tle_line1": "1 38512U 99025ESX 25328.62817015  .00001212  00000+0  11065-2 0  9994",
        "tle_line2": "2 38512  98.3776 212.6517 0225885 154.1881 207.0750 13.73922037593211"
      },
      "geometry": {
        "type": "Point",
        "coordinates": [
          43.619792125508226,
          24.479517949682283
        ]
      }
    },
    {
      "type": "Feature",
      "properties": {
        "norad_id": 38513,
        "name": "FENGYUN 1C DEB",
        "group": "fengyun-1c-debris",
        "lat": 12.963419834748233,
        "lon": -123.1581355558227,
        "alt_km": 654.2188780263141,
        "timestamp": "2025-12-02T17:49:12.317762+00:00",
        "meta_object_name": "FENGYUN 1C DEB",
        "meta_object_id": "1999-025ESY",
        "meta_epoch": "2025-11-05T11:10:23.483712",
        "meta_mean_motion": 14.74191137,
        "meta_eccentricity": 0.02562234,
        "meta_inclination": 97.6286,
        "meta_ra_of_asc_node": 212.8757,
        "meta_arg_of_pericenter": 7.2303,
        "meta_mean_anomaly": 353.249,
        "meta_ephemeris_type": 0,
        "meta_classification_type": "U",
        "meta_norad_cat_id": 38513,
        "meta_element_set_no": 999,
        "meta_rev_at_epoch": 63108,
        "meta_bstar": 0.0018759347,
        "meta_mean_motion_dot": 0.0002109,
        "meta_mean_motion_ddot": 0,
        "tle_line1": "1 38513U 99025ESY 25309.46554958  .00021090  00000+0  18759-2 0  9993",
        "tle_line2": "2 38513  97.6286 212.8757 0256223   7.2303 353.2490 14.74191137631089"
      },
      "geometry": {
        "type": "Point",
        "coordinates": [
          -123.1581355558227,
          12.963419834748233
        ]
      }
    },
    {
      "type": "Feature",
      "properties": {
        "norad_id": 38514,
        "name": "FENGYUN 1C DEB",
        "group": "fengyun-1c-debris",
        "lat": -6.739019816177211,
        "lon": -173.6889254660727,
        "alt_km": 1001.6329151201671,
        "timestamp": "2025-12-02T17:49:12.317772+00:00",
        "meta_object_name": "FENGYUN 1C DEB",
        "meta_object_id": "1999-025ESZ",
        "meta_epoch": "2025-12-02T08:28:32.072736",
        "meta_mean_motion": 14.1520314,
        "meta_eccentricity": 0.027272,
        "meta_inclination": 98.0552,
        "meta_ra_of_asc_node": 6.9176,
        "meta_arg_of_pericenter": 44.3542,
        "meta_mean_anomaly": 317.9133,
        "meta_ephemeris_type": 0,
        "meta_classification_type": "U",
        "meta_norad_cat_id": 38514,
        "meta_element_set_no": 999,
        "meta_rev_at_epoch": 87849,
        "meta_bstar": 0.0058073,
        "meta_mean_motion_dot": 0.00016169,
        "meta_mean_motion_ddot": 0,
        "tle_line1": "1 38514U 99025ESZ 25336.35314899  .00016169  00000+0  58073-2 0  9994",
        "tle_line2": "2 38514  98.0552   6.9176 0272720  44.3542 317.9133 14.15203140878497"
      },
      "geometry": {
        "type": "Point",
        "coordinates": [
          -173.6889254660727,
          -6.739019816177211
        ]
      }
    }
  ]
}